{
    "links": {
        "self": "http://www.neowsapp.com/rest/v1/neo/3872626?api_key=iIulBulltgU6a56xZRHN4H3l9WmuAYTsLGpBGhQ2"
    },
    "id": "3872626",
    "neo_reference_id": "3872626",
    "name": "(2019 SO7)",
    "designation": "2019 SO7",
    "nasa_jpl_url": "http://ssd.jpl.nasa.gov/sbdb.cgi?sstr=3872626",
    "absolute_magnitude_h": 23.1,
    "estimated_diameter": {
        "kilometers": {
            "estimated_diameter_min": 0.063760979,
            "estimated_diameter_max": 0.1425738833
        },
        "meters": {
            "estimated_diameter_min": 63.7609789875,
            "estimated_diameter_max": 142.5738833281
        },
        "miles": {
            "estimated_diameter_min": 0.0396192233,
            "estimated_diameter_max": 0.0885912765
        },
        "feet": {
            "estimated_diameter_min": 209.1895703015,
            "estimated_diameter_max": 467.7620993781
        }
    },
    "is_potentially_hazardous_asteroid": false,
    "close_approach_data": [
        {
            "close_approach_date": "2019-10-16",
            "close_approach_date_full": "2019-Oct-16 08:48",
            "epoch_date_close_approach": 1571215680000,
            "relative_velocity": {
                "kilometers_per_second": "11.8635109349",
                "kilometers_per_hour": "42708.6393656778",
                "miles_per_hour": "26537.4876103013"
            },
            "miss_distance": {
                "astronomical": "0.1643475731",
                "lunar": "63.9312059359",
                "kilometers": "24586046.875429297",
                "miles": "15277061.1216544186"
            },
            "orbiting_body": "Earth"
        }
    ],
    "orbital_data": {
        "orbit_id": "2",
        "orbit_determination_date": "2019-10-05 06:19:53",
        "first_observation_date": "2019-09-28",
        "last_observation_date": "2019-10-05",
        "data_arc_in_days": 7,
        "observations_used": 29,
        "orbit_uncertainty": "9",
        "minimum_orbit_intersection": ".0828194",
        "jupiter_tisserand_invariant": "2.995",
        "epoch_osculation": "2458755.5",
        "eccentricity": ".6234503499211123",
        "semi_major_axis": "2.796865740030635",
        "inclination": "8.309931039702192",
        "ascending_node_longitude": "202.9948872775921",
        "orbital_period": "1708.4640927613",
        "perihelion_distance": "1.053158815726165",
        "perihelion_argument": "209.6340366388436",
        "aphelion_distance": "4.540572664335105",
        "perihelion_time": "2458792.661945704328",
        "mean_anomaly": "352.169399105172",
        "mean_motion": ".2107155787032967",
        "equinox": "J2000",
        "orbit_class": {
            "orbit_class_type": "AMO",
            "orbit_class_description": "Near-Earth asteroid orbits similar to that of 1221 Amor",
            "orbit_class_range": "1.017 AU < q (perihelion) < 1.3 AU"
        }
    },
    "is_sentry_object": false
}